{
  "type": "FeatureCollection",
  "features": [
    {
      "type": "Feature",
      "properties": {
        "norad_id": 25590,
        "name": "COSMOS 2361",
        "group": "musson",
        "lat": 54.89259942614133,
        "lon": -3.4435578558463824,
        "alt_km": 999.9739700598811,
        "timestamp": "2025-12-09T14:52:26.431568+00:00",
        "meta_object_name": "COSMOS 2361",
        "meta_object_id": "1998-076A",
        "meta_epoch": "2025-12-09T02:40:28.905888",
        "meta_mean_motion": 13.73216881,
        "meta_eccentricity": 0.00300616,
        "meta_inclination": 82.9338,
        "meta_ra_of_asc_node": 346.7702,
        "meta_arg_of_pericenter": 276.1386,
        "meta_mean_anomaly": 147.7937,
        "meta_ephemeris_type": 0,
        "meta_classification_type": "U",
        "meta_norad_cat_id": 25590,
        "meta_element_set_no": 999,
        "meta_rev_at_epoch": 35061,
        "meta_bstar": 7.6819126e-05,
        "meta_mean_motion_dot": 8.6e-07,
        "meta_mean_motion_ddot": 0,
        "tle_line1": "1 25590U 98076A   25343.11144567  .00000086  00000+0  76819-4 0  9995",
        "tle_line2": "2 25590  82.9338 346.7702 0030061 276.1386 147.7937 13.73216881350611"
      },
      "geometry": {
        "type": "Point",
        "coordinates": [
          -3.4435578558463824,
          54.89259942614133
        ]
      }
    },
    {
      "type": "Feature",
      "properties": {
        "norad_id": 26818,
        "name": "COSMOS 2378",
        "group": "musson",
        "lat": 61.863254064263245,
        "lon": 168.61487509722028,
        "alt_km": 981.325965548438,
        "timestamp": "2025-12-09T14:52:26.431589+00:00",
        "meta_object_name": "COSMOS 2378",
        "meta_object_id": "2001-023A",
        "meta_epoch": "2025-12-09T07:21:54.196128",
        "meta_mean_motion": 13.74141581,
        "meta_eccentricity": 0.0032214,
        "meta_inclination": 82.9273,
        "meta_ra_of_asc_node": 2.2705,
        "meta_arg_of_pericenter": 214.6193,
        "meta_mean_anomaly": 156.1185,
        "meta_ephemeris_type": 0,
        "meta_classification_type": "U",
        "meta_norad_cat_id": 26818,
        "meta_element_set_no": 999,
        "meta_rev_at_epoch": 22876,
        "meta_bstar": 6.0275309e-05,
        "meta_mean_motion_dot": 7.2e-07,
        "meta_mean_motion_ddot": 0,
        "tle_line1": "1 26818U 01023A   25343.30687727  .00000072  00000+0  60275-4 0  9990",
        "tle_line2": "2 26818  82.9273   2.2705 0032214 214.6193 156.1185 13.74141581228769"
      },
      "geometry": {
        "type": "Point",
        "coordinates": [
          168.61487509722028,
          61.863254064263245
        ]
      }
    },
    {
      "type": "Feature",
      "properties": {
        "norad_id": 27436,
        "name": "COSMOS 2389",
        "group": "musson",
        "lat": -46.91853001177537,
        "lon": -58.309282940638866,
        "alt_km": 1003.4268595036046,
        "timestamp": "2025-12-09T14:52:26.431603+00:00",
        "meta_object_name": "COSMOS 2389",
        "meta_object_id": "2002-026A",
        "meta_epoch": "2025-12-09T06:54:57.800736",
        "meta_mean_motion": 13.75154102,
        "meta_eccentricity": 0.0047698,
        "meta_inclination": 82.95,
        "meta_ra_of_asc_node": 309.54,
        "meta_arg_of_pericenter": 70.1183,
        "meta_mean_anomaly": 42.4814,
        "meta_ephemeris_type": 0,
        "meta_classification_type": "U",
        "meta_norad_cat_id": 27436,
        "meta_element_set_no": 999,
        "meta_rev_at_epoch": 18101,
        "meta_bstar": 9.5501197e-05,
        "meta_mean_motion_dot": 1.08e-06,
        "meta_mean_motion_ddot": 0,
        "tle_line1": "1 27436U 02026A   25343.28816899  .00000108  00000+0  95501-4 0  9992",
        "tle_line2": "2 27436  82.9500 309.5400 0047698  70.1183  42.4814 13.75154102181016"
      },
      "geometry": {
        "type": "Point",
        "coordinates": [
          -58.309282940638866,
          -46.91853001177537
        ]
      }
    },
    {
      "type": "Feature",
      "properties": {
        "norad_id": 27818,
        "name": "COSMOS 2398",
        "group": "musson",
        "lat": -62.27764293566978,
        "lon": -98.62578843991375,
        "alt_km": 1022.0913273969081,
        "timestamp": "2025-12-09T14:52:26.431615+00:00",
        "meta_object_name": "COSMOS 2398",
        "meta_object_id": "2003-023A",
        "meta_epoch": "2025-12-09T06:58:14.192256",
        "meta_mean_motion": 13.72385198,
        "meta_eccentricity": 0.00324602,
        "meta_inclination": 82.9483,
        "meta_ra_of_asc_node": 275.24,
        "meta_arg_of_pericenter": 121.0294,
        "meta_mean_anomaly": 349.8236,
        "meta_ephemeris_type": 0,
        "meta_classification_type": "U",
        "meta_norad_cat_id": 27818,
        "meta_element_set_no": 999,
        "meta_rev_at_epoch": 12769,
        "meta_bstar": 0.0001023755,
        "meta_mean_motion_dot": 1.09e-06,
        "meta_mean_motion_ddot": 0,
        "tle_line1": "1 27818U 03023A   25343.29044204  .00000109  00000+0  10238-3 0  9992",
        "tle_line2": "2 27818  82.9483 275.2400 0032460 121.0294 349.8236 13.72385198127693"
      },
      "geometry": {
        "type": "Point",
        "coordinates": [
          -98.62578843991375,
          -62.27764293566978
        ]
      }
    },
    {
      "type": "Feature",
      "properties": {
        "norad_id": 28380,
        "name": "COSMOS 2407",
        "group": "musson",
        "lat": 82.85309511386457,
        "lon": -64.62181358006923,
        "alt_km": 942.6660277524088,
        "timestamp": "2025-12-09T14:52:26.431626+00:00",
        "meta_object_name": "COSMOS 2407",
        "meta_object_id": "2004-028A",
        "meta_epoch": "2025-12-09T04:32:09.726144",
        "meta_mean_motion": 13.7631308,
        "meta_eccentricity": 0.00404287,
        "meta_inclination": 82.9611,
        "meta_ra_of_asc_node": 215.5215,
        "meta_arg_of_pericenter": 64.4728,
        "meta_mean_anomaly": 51.0756,
        "meta_ephemeris_type": 0,
        "meta_classification_type": "U",
        "meta_norad_cat_id": 28380,
        "meta_element_set_no": 999,
        "meta_rev_at_epoch": 7374,
        "meta_bstar": 7.8593766e-05,
        "meta_mean_motion_dot": 9.3e-07,
        "meta_mean_motion_ddot": 0,
        "tle_line1": "1 28380U 04028A   25343.18900146  .00000093  00000+0  78594-4 0  9999",
        "tle_line2": "2 28380  82.9611 215.5215 0040428  64.4728  51.0756 13.76313080 73747"
      },
      "geometry": {
        "type": "Point",
        "coordinates": [
          -64.62181358006923,
          82.85309511386457
        ]
      }
    },
    {
      "type": "Feature",
      "properties": {
        "norad_id": 28521,
        "name": "COSMOS 2414",
        "group": "musson",
        "lat": -42.17995796380323,
        "lon": 13.457617002385609,
        "alt_km": 934.2926874802151,
        "timestamp": "2025-12-09T14:52:26.431637+00:00",
        "meta_object_name": "COSMOS 2414",
        "meta_object_id": "2005-002A",
        "meta_epoch": "2025-12-09T06:53:15.736416",
        "meta_mean_motion": 13.87902363,
        "meta_eccentricity": 0.00406929,
        "meta_inclination": 82.9495,
        "meta_ra_of_asc_node": 187.2708,
        "meta_arg_of_pericenter": 149.3714,
        "meta_mean_anomaly": 210.9837,
        "meta_ephemeris_type": 0,
        "meta_classification_type": "U",
        "meta_norad_cat_id": 28521,
        "meta_element_set_no": 999,
        "meta_rev_at_epoch": 5747,
        "meta_bstar": 8.2549448e-05,
        "meta_mean_motion_dot": 1.15e-06,
        "meta_mean_motion_ddot": 0,
        "tle_line1": "1 28521U 05002A   25343.28698769  .00000115  00000+0  82549-4 0  9995",
        "tle_line2": "2 28521  82.9495 187.2708 0040692 149.3714 210.9837 13.87902363 57475"
      },
      "geometry": {
        "type": "Point",
        "coordinates": [
          13.457617002385609,
          -42.17995796380323
        ]
      }
    },
    {
      "type": "Feature",
      "properties": {
        "norad_id": 32052,
        "name": "COSMOS 2429",
        "group": "musson",
        "lat": 39.9955498660675,
        "lon": 159.6760234259227,
        "alt_km": 979.5145489085508,
        "timestamp": "2025-12-09T14:52:26.431648+00:00",
        "meta_object_name": "COSMOS 2429",
        "meta_object_id": "2007-038A",
        "meta_epoch": "2025-12-09T07:12:59.056992",
        "meta_mean_motion": 13.75148868,
        "meta_eccentricity": 0.0039403,
        "meta_inclination": 82.9803,
        "meta_ra_of_asc_node": 345.8443,
        "meta_arg_of_pericenter": 47.2336,
        "meta_mean_anomaly": 313.2124,
        "meta_ephemeris_type": 0,
        "meta_classification_type": "U",
        "meta_norad_cat_id": 32052,
        "meta_element_set_no": 999,
        "meta_rev_at_epoch": 91555,
        "meta_bstar": 7.2273203e-05,
        "meta_mean_motion_dot": 8.5e-07,
        "meta_mean_motion_ddot": 0,
        "tle_line1": "1 32052U 07038A   25343.30068353  .00000085  00000+0  72273-4 0  9992",
        "tle_line2": "2 32052  82.9803 345.8443 0039403  47.2336 313.2124 13.75148868915551"
      },
      "geometry": {
        "type": "Point",
        "coordinates": [
          159.6760234259227,
          39.9955498660675
        ]
      }
    },
    {
      "type": "Feature",
      "properties": {
        "norad_id": 35635,
        "name": "COSMOS 2454",
        "group": "musson",
        "lat": -68.47868310467435,
        "lon": 9.284011085091787,
        "alt_km": 950.7812614687555,
        "timestamp": "2025-12-09T14:52:26.431659+00:00",
        "meta_object_name": "COSMOS 2454",
        "meta_object_id": "2009-039A",
        "meta_epoch": "2025-12-09T07:35:55.560192",
        "meta_mean_motion": 13.89927939,
        "meta_eccentricity": 0.00204842,
        "meta_inclination": 82.9555,
        "meta_ra_of_asc_node": 171.2399,
        "meta_arg_of_pericenter": 82.8645,
        "meta_mean_anomaly": 90.7125,
        "meta_ephemeris_type": 0,
        "meta_classification_type": "U",
        "meta_norad_cat_id": 35635,
        "meta_element_set_no": 999,
        "meta_rev_at_epoch": 83102,
        "meta_bstar": 6.4454522e-05,
        "meta_mean_motion_dot": 9.5e-07,
        "meta_mean_motion_ddot": 0,
        "tle_line1": "1 35635U 09039A   25343.31661528  .00000095  00000+0  64455-4 0  9993",
        "tle_line2": "2 35635  82.9555 171.2399 0020484  82.8645  90.7125 13.89927939831029"
      },
      "geometry": {
        "type": "Point",
        "coordinates": [
          9.284011085091787,
          -68.47868310467435
        ]
      }
    },
    {
      "type": "Feature",
      "properties": {
        "norad_id": 36519,
        "name": "COSMOS 2463",
        "group": "musson",
        "lat": 44.8118491128161,
        "lon": -158.04438177157854,
        "alt_km": 1014.2916268835752,
        "timestamp": "2025-12-09T14:52:26.431670+00:00",
        "meta_object_name": "COSMOS 2463",
        "meta_object_id": "2010-017A",
        "meta_epoch": "2025-12-09T05:47:45.694176",
        "meta_mean_motion": 13.71648809,
        "meta_eccentricity": 0.00348626,
        "meta_inclination": 82.9615,
        "meta_ra_of_asc_node": 29.2833,
        "meta_arg_of_pericenter": 298.1254,
        "meta_mean_anomaly": 129.9532,
        "meta_ephemeris_type": 0,
        "meta_classification_type": "U",
        "meta_norad_cat_id": 36519,
        "meta_element_set_no": 999,
        "meta_rev_at_epoch": 78189,
        "meta_bstar": 7.9932569e-05,
        "meta_mean_motion_dot": 8.7e-07,
        "meta_mean_motion_ddot": 0,
        "tle_line1": "1 36519U 10017A   25343.24150109  .00000087  00000+0  79933-4 0  9991",
        "tle_line2": "2 36519  82.9615  29.2833 0034862 298.1254 129.9532 13.71648809781899"
      },
      "geometry": {
        "type": "Point",
        "coordinates": [
          -158.04438177157854,
          44.8118491128161
        ]
      }
    }
  ]
}